IRIDIUM 159             
1 43578U 18061K   25327.45887095  .00000095  00000+0  26764-4 0  9990
2 43578  86.3963 142.7223 0002170  87.1830 272.9614 14.34218226383897
IRIDIUM 180             
1 43922U 19002A   25327.31883953  .00000353  00000+0  11887-3 0  9999
2 43922  86.3961  79.6597 0002060  90.5783 269.5649 14.34218169359487
IRIDIUM 176             
1 43923U 19002B   25327.35278231  .00001226  00000+0  19051-3 0  9992
2 43923  86.6083  79.6188 0001850  97.5726 262.5702 14.72266719368964
IRIDIUM 168             
1 43924U 19002C   25327.38226300  .00000353  00000+0  11915-3 0  9997
2 43924  86.3963  79.7046 0002033  92.8775 267.2653 14.34218642359472
IRIDIUM 173             
1 43925U 19002D   25327.36958082  .00000355  00000+0  11956-3 0  9992
2 43925  86.3959  79.6071 0001928  93.5950 266.5466 14.34217718359455
IRIDIUM 169             
1 43926U 19002E   25327.43671394  .00000459  00000+0  14361-3 0  9997
2 43926  86.4205 111.2295 0000856  96.7550 263.3745 14.38610285360640
IRIDIUM 172             
1 43927U 19002F   25327.36323755  .00000354  00000+0  11933-3 0  9991
2 43927  86.3959  79.6169 0002108  89.1393 271.0044 14.34218297359465
IRIDIUM 175             
1 43928U 19002G   25327.21209595  .00001028  00000+0  15913-3 0  9992
2 43928  86.1522  23.1863 0002792 108.4480 251.7040 14.72241534368931
